CCSDS_OMM_VERS = 2.0
CREATION_DATE  = 
ORIGINATOR     = 

OBJECT_NAME    = UNKNOWN
OBJECT_ID      = 
CENTER_NAME    = EARTH
REF_FRAME      = TEME
TIME_SYSTEM    = UTC
MEAN_ELEMENT_THEORY = SGP/SGP4

EPOCH          = 2025-11-29T14:17:21.912864
MEAN_MOTION    = 13.88338822
ECCENTRICITY   = .0062493
INCLINATION    = 99.0603
RA_OF_ASC_NODE = 263.1535
ARG_OF_PERICENTER = 235.8670
MEAN_ANOMALY   = 302.6802

EPHEMERIS_TYPE = 0
CLASSIFICATION_TYPE = U
NORAD_CAT_ID   = 85238
ELEMENT_SET_NO = 999
REV_AT_EPOCH   = 60901
BSTAR          = .74162E-4
MEAN_MOTION_DOT = .47E-6
MEAN_MOTION_DDOT = 0

CCSDS_OMM_VERS = 2.0
CREATION_DATE  = 
ORIGINATOR     = 

OBJECT_NAME    = UNKNOWN
OBJECT_ID      = 
CENTER_NAME    = EARTH
REF_FRAME      = TEME
TIME_SYSTEM    = UTC
MEAN_ELEMENT_THEORY = SGP/SGP4

EPOCH          = 2025-11-29T05:57:46.118880
MEAN_MOTION    = 14.21413721
ECCENTRICITY   = .0223189
INCLINATION    = 97.9871
RA_OF_ASC_NODE = 338.0125
ARG_OF_PERICENTER = 344.1135
MEAN_ANOMALY   = 15.3119

EPHEMERIS_TYPE = 0
CLASSIFICATION_TYPE = U
NORAD_CAT_ID   = 85246
ELEMENT_SET_NO = 999
REV_AT_EPOCH   = 62115
BSTAR          = .72801E-3
MEAN_MOTION_DOT = .2006E-4
MEAN_MOTION_DDOT = 0

CCSDS_OMM_VERS = 2.0
CREATION_DATE  = 
ORIGINATOR     = 

OBJECT_NAME    = UNKNOWN
OBJECT_ID      = 
CENTER_NAME    = EARTH
REF_FRAME      = TEME
TIME_SYSTEM    = UTC
MEAN_ELEMENT_THEORY = SGP/SGP4

EPOCH          = 2025-11-29T07:58:56.080992
MEAN_MOTION    = 13.99905318
ECCENTRICITY   = .0050508
INCLINATION    = 100.4289
RA_OF_ASC_NODE = 7.5633
ARG_OF_PERICENTER = 272.2826
MEAN_ANOMALY   = 150.8358

EPHEMERIS_TYPE = 0
CLASSIFICATION_TYPE = U
NORAD_CAT_ID   = 85373
ELEMENT_SET_NO = 999
REV_AT_EPOCH   = 61025
BSTAR          = .16773E-2
MEAN_MOTION_DOT = .2435E-4
MEAN_MOTION_DDOT = 0

CCSDS_OMM_VERS = 2.0
CREATION_DATE  = 
ORIGINATOR     = 

OBJECT_NAME    = UNKNOWN
OBJECT_ID      = 
CENTER_NAME    = EARTH
REF_FRAME      = TEME
TIME_SYSTEM    = UTC
MEAN_ELEMENT_THEORY = SGP/SGP4

EPOCH          = 2025-11-28T04:34:22.698336
MEAN_MOTION    = 13.51769924
ECCENTRICITY   = .0052622
INCLINATION    = 100.4934
RA_OF_ASC_NODE = 295.6683
ARG_OF_PERICENTER = 282.0069
MEAN_ANOMALY   = 93.8185

EPHEMERIS_TYPE = 0
CLASSIFICATION_TYPE = U
NORAD_CAT_ID   = 87014
ELEMENT_SET_NO = 999
REV_AT_EPOCH   = 58895
BSTAR          = .43398E-2
MEAN_MOTION_DOT = .2815E-4
MEAN_MOTION_DDOT = 0

CCSDS_OMM_VERS = 2.0
CREATION_DATE  = 
ORIGINATOR     = 

OBJECT_NAME    = UNKNOWN
OBJECT_ID      = 
CENTER_NAME    = EARTH
REF_FRAME      = TEME
TIME_SYSTEM    = UTC
MEAN_ELEMENT_THEORY = SGP/SGP4

EPOCH          = 2025-11-27T20:28:51.339936
MEAN_MOTION    = 14.04439672
ECCENTRICITY   = .0081146
INCLINATION    = 98.7593
RA_OF_ASC_NODE = 7.6400
ARG_OF_PERICENTER = 292.0270
MEAN_ANOMALY   = 67.2292

EPHEMERIS_TYPE = 0
CLASSIFICATION_TYPE = U
NORAD_CAT_ID   = 87029
ELEMENT_SET_NO = 999
REV_AT_EPOCH   = 59091
BSTAR          = .63028E-3
MEAN_MOTION_DOT = .991E-5
MEAN_MOTION_DDOT = 0

CCSDS_OMM_VERS = 2.0
CREATION_DATE  = 
ORIGINATOR     = 

OBJECT_NAME    = UNKNOWN
OBJECT_ID      = 
CENTER_NAME    = EARTH
REF_FRAME      = TEME
TIME_SYSTEM    = UTC
MEAN_ELEMENT_THEORY = SGP/SGP4

EPOCH          = 2025-11-29T21:06:12.341664
MEAN_MOTION    = 14.07076167
ECCENTRICITY   = .0044257
INCLINATION    = 98.7157
RA_OF_ASC_NODE = 17.5561
ARG_OF_PERICENTER = 131.3134
MEAN_ANOMALY   = 229.1857

EPHEMERIS_TYPE = 0
CLASSIFICATION_TYPE = U
NORAD_CAT_ID   = 87042
ELEMENT_SET_NO = 999
REV_AT_EPOCH   = 55215
BSTAR          = .4781E-3
MEAN_MOTION_DOT = .765E-5
MEAN_MOTION_DDOT = 0

CCSDS_OMM_VERS = 2.0
CREATION_DATE  = 
ORIGINATOR     = 

OBJECT_NAME    = UNKNOWN
OBJECT_ID      = 
CENTER_NAME    = EARTH
REF_FRAME      = TEME
TIME_SYSTEM    = UTC
MEAN_ELEMENT_THEORY = SGP/SGP4

EPOCH          = 2025-11-30T13:34:41.506752
MEAN_MOTION    = 13.45800581
ECCENTRICITY   = .0715841
INCLINATION    = 65.7285
RA_OF_ASC_NODE = 283.3426
ARG_OF_PERICENTER = 146.9898
MEAN_ANOMALY   = 217.8032

EPHEMERIS_TYPE = 0
CLASSIFICATION_TYPE = U
NORAD_CAT_ID   = 87051
ELEMENT_SET_NO = 999
REV_AT_EPOCH   = 58694
BSTAR          = .34831E-3
MEAN_MOTION_DOT = .937E-5
MEAN_MOTION_DDOT = 0

CCSDS_OMM_VERS = 2.0
CREATION_DATE  = 
ORIGINATOR     = 

OBJECT_NAME    = UNKNOWN
OBJECT_ID      = 
CENTER_NAME    = EARTH
REF_FRAME      = TEME
TIME_SYSTEM    = UTC
MEAN_ELEMENT_THEORY = SGP/SGP4

EPOCH          = 2025-11-29T14:38:18.429792
MEAN_MOTION    = 14.10971339
ECCENTRICITY   = .0013917
INCLINATION    = 100.0922
RA_OF_ASC_NODE = 211.4213
ARG_OF_PERICENTER = 19.0993
MEAN_ANOMALY   = 341.0693

EPHEMERIS_TYPE = 0
CLASSIFICATION_TYPE = U
NORAD_CAT_ID   = 87054
ELEMENT_SET_NO = 999
REV_AT_EPOCH   = 61447
BSTAR          = .11006E-2
MEAN_MOTION_DOT = .1925E-4
MEAN_MOTION_DDOT = 0

CCSDS_OMM_VERS = 2.0
CREATION_DATE  = 
ORIGINATOR     = 

OBJECT_NAME    = UNKNOWN
OBJECT_ID      = 
CENTER_NAME    = EARTH
REF_FRAME      = TEME
TIME_SYSTEM    = UTC
MEAN_ELEMENT_THEORY = SGP/SGP4

EPOCH          = 2025-11-30T09:23:51.357696
MEAN_MOTION    = 13.85481546
ECCENTRICITY   = .0479706
INCLINATION    = 61.2208
RA_OF_ASC_NODE = 308.5221
ARG_OF_PERICENTER = 231.3290
MEAN_ANOMALY   = 124.3898

EPHEMERIS_TYPE = 0
CLASSIFICATION_TYPE = U
NORAD_CAT_ID   = 87071
ELEMENT_SET_NO = 999
REV_AT_EPOCH   = 60077
BSTAR          = .16106E-2
MEAN_MOTION_DOT = .4439E-4
MEAN_MOTION_DDOT = 0

CCSDS_OMM_VERS = 2.0
CREATION_DATE  = 
ORIGINATOR     = 

OBJECT_NAME    = UNKNOWN
OBJECT_ID      = 
CENTER_NAME    = EARTH
REF_FRAME      = TEME
TIME_SYSTEM    = UTC
MEAN_ELEMENT_THEORY = SGP/SGP4

EPOCH          = 2025-11-30T05:01:48.066240
MEAN_MOTION    = 12.42809641
ECCENTRICITY   = .0031334
INCLINATION    = 102.2642
RA_OF_ASC_NODE = 65.0281
ARG_OF_PERICENTER = 114.0979
MEAN_ANOMALY   = 246.3368

EPHEMERIS_TYPE = 0
CLASSIFICATION_TYPE = U
NORAD_CAT_ID   = 87129
ELEMENT_SET_NO = 999
REV_AT_EPOCH   = 54511
BSTAR          = .15831E-2
MEAN_MOTION_DOT = .173E-5
MEAN_MOTION_DDOT = 0

CCSDS_OMM_VERS = 2.0
CREATION_DATE  = 
ORIGINATOR     = 

OBJECT_NAME    = UNKNOWN
OBJECT_ID      = 
CENTER_NAME    = EARTH
REF_FRAME      = TEME
TIME_SYSTEM    = UTC
MEAN_ELEMENT_THEORY = SGP/SGP4

EPOCH          = 2025-11-06T01:45:04.557024
MEAN_MOTION    = 13.65936087
ECCENTRICITY   = .0103684
INCLINATION    = 90.3486
RA_OF_ASC_NODE = 68.0777
ARG_OF_PERICENTER = 6.5928
MEAN_ANOMALY   = 353.6568

EPHEMERIS_TYPE = 0
CLASSIFICATION_TYPE = U
NORAD_CAT_ID   = 87159
ELEMENT_SET_NO = 999
REV_AT_EPOCH   = 55168
BSTAR          = .15248E-2
MEAN_MOTION_DOT = .1307E-4
MEAN_MOTION_DDOT = 0

CCSDS_OMM_VERS = 2.0
CREATION_DATE  = 
ORIGINATOR     = 

OBJECT_NAME    = UNKNOWN
OBJECT_ID      = 
CENTER_NAME    = EARTH
REF_FRAME      = TEME
TIME_SYSTEM    = UTC
MEAN_ELEMENT_THEORY = SGP/SGP4

EPOCH          = 2025-11-29T05:16:04.504512
MEAN_MOTION    = 13.63781681
ECCENTRICITY   = .0642238
INCLINATION    = 65.6016
RA_OF_ASC_NODE = 269.6472
ARG_OF_PERICENTER = 70.6950
MEAN_ANOMALY   = 296.2395

EPHEMERIS_TYPE = 0
CLASSIFICATION_TYPE = U
NORAD_CAT_ID   = 87163
ELEMENT_SET_NO = 999
REV_AT_EPOCH   = 57567
BSTAR          = .95255E-3
MEAN_MOTION_DOT = .3083E-4
MEAN_MOTION_DDOT = 0

