UNKNOWN                 
1 85238U          25333.59539251  .00000047  00000+0  74162-4 0  9995
2 85238  99.0603 263.1535 0062493 235.8670 302.6802 13.88338822609018
UNKNOWN                 
1 85246U          25333.24845045  .00002006  00000+0  72801-3 0  9991
2 85246  97.9871 338.0125 0223189 344.1135  15.3119 14.21413721621157
UNKNOWN                 
1 85373U          25333.33259353  .00002435  00000+0  16773-2 0  9994
2 85373 100.4289   7.5633 0050508 272.2826 150.8358 13.99905318610255
UNKNOWN                 
1 87014U          25332.19054049  .00002815  00000+0  43398-2 0  9991
2 87014 100.4934 295.6683 0052622 282.0069  93.8185 13.51769924588952
UNKNOWN                 
1 87029U          25331.85337199  .00000991  00000+0  63028-3 0  9995
2 87029  98.7593   7.6400 0081146 292.0270  67.2292 14.04439672590910
UNKNOWN                 
1 87042U          25333.87930951  .00000765  00000+0  47810-3 0  9999
2 87042  98.7157  17.5561 0044257 131.3134 229.1857 14.07076167552154
UNKNOWN                 
1 87051U          25334.56575818  .00000937  00000+0  34831-3 0  9993
2 87051  65.7285 283.3426 0715841 146.9898 217.8032 13.45800581586945
UNKNOWN                 
1 87054U          25333.60993553  .00001925  00000+0  11006-2 0  9996
2 87054 100.0922 211.4213 0013917  19.0993 341.0693 14.10971339614472
UNKNOWN                 
1 87071U          25334.39156664  .00004439  00000+0  16106-2 0  9995
2 87071  61.2208 308.5221 0479706 231.3290 124.3898 13.85481546600778
UNKNOWN                 
1 87129U          25334.20958410  .00000173  00000+0  15831-2 0  9993
2 87129 102.2642  65.0281 0031334 114.0979 246.3368 12.42809641545118
UNKNOWN                 
1 87159U          25310.07296941  .00001307  00000+0  15248-2 0  9991
2 87159  90.3486  68.0777 0103684   6.5928 353.6568 13.65936087551688
UNKNOWN                 
1 87163U          25333.21949658  .00003083  00000+0  95255-3 0  9997
2 87163  65.6016 269.6472 0642238  70.6950 296.2395 13.63781681575679
